{
    "type": "FeatureCollection",
    "features": [
        {
            "type": "Feature",
            "geometry": {
                "type": "LineString",
                "coordinates": [
                    [
                        -2.35608,
                        49.413808
                    ],
                    [
                        -2.356331,
                        49.413287
                    ],
                    [
                        -2.356592,
                        49.412824
                    ],
                    [
                        -2.35678,
                        49.412279
                    ],
                    [
                        -2.357238,
                        49.411816
                    ],
                    [
                        -2.357759,
                        49.411405
                    ],
                    [
                        -2.358155,
                        49.411001
                    ],
                    [
                        -2.358765,
                        49.41062
                    ],
                    [
                        -2.35917,
                        49.410292
                    ],
                    [
                        -2.359484,
                        49.410245
                    ],
                    [
                        -2.35979,
                        49.410333
                    ],
                    [
                        -2.360176,
                        49.410069
                    ],
                    [
                        -2.3604,
                        49.410262
                    ],
                    [
                        -2.360337,
                        49.410473
                    ],
                    [
                        -2.360221,
                        49.410655
                    ],
                    [
                        -2.360131,
                        49.410731
                    ],
                    [
                        -2.360185,
                        49.410942
                    ],
                    [
                        -2.360311,
                        49.411206
                    ],
                    [
                        -2.360373,
                        49.411446
                    ],
                    [
                        -2.360598,
                        49.411581
                    ],
                    [
                        -2.36084,
                        49.411435
                    ],
                    [
                        -2.360993,
                        49.411148
                    ],
                    [
                        -2.361119,
                        49.410802
                    ],
                    [
                        -2.361308,
                        49.410333
                    ],
                    [
                        -2.361379,
                        49.409876
                    ],
                    [
                        -2.361577,
                        49.409483
                    ],
                    [
                        -2.361784,
                        49.409137
                    ],
                    [
                        -2.362134,
                        49.408762
                    ],
                    [
                        -2.362637,
                        49.40841
                    ],
                    [
                        -2.363194,
                        49.40817
                    ],
                    [
                        -2.363661,
                        49.407836
                    ],
                    [
                        -2.363931,
                        49.407531
                    ],
                    [
                        -2.364371,
                        49.407267
                    ],
                    [
                        -2.365044,
                        49.407021
                    ],
                    [
                        -2.365574,
                        49.40681
                    ],
                    [
                        -2.366176,
                        49.406535
                    ],
                    [
                        -2.366598,
                        49.406282
                    ],
                    [
                        -2.367317,
                        49.406142
                    ],
                    [
                        -2.367901,
                        49.406007
                    ],
                    [
                        -2.368431,
                        49.405878
                    ],
                    [
                        -2.369087,
                        49.405802
                    ],
                    [
                        -2.36976,
                        49.405731
                    ],
                    [
                        -2.370497,
                        49.405644
                    ],
                    [
                        -2.371252,
                        49.405386
                    ],
                    [
                        -2.371943,
                        49.405104
                    ],
                    [
                        -2.372734,
                        49.40487
                    ],
                    [
                        -2.3733,
                        49.404583
                    ],
                    [
                        -2.373749,
                        49.404166
                    ],
                    [
                        -2.374243,
                        49.403738
                    ],
                    [
                        -2.37515,
                        49.403393
                    ],
                    [
                        -2.376183,
                        49.403158
                    ],
                    [
                        -2.37709,
                        49.402888
                    ],
                    [
                        -2.378069,
                        49.402742
                    ],
                    [
                        -2.379022,
                        49.402748
                    ],
                    [
                        -2.379983,
                        49.40273
                    ],
                    [
                        -2.380818,
                        49.402718
                    ],
                    [
                        -2.381654,
                        49.402789
                    ],
                    [
                        -2.382381,
                        49.402959
                    ],
                    [
                        -2.382911,
                        49.403164
                    ],
                    [
                        -2.383351,
                        49.403351
                    ],
                    [
                        -2.383953,
                        49.403527
                    ],
                    [
                        -2.384375,
                        49.403721
                    ],
                    [
                        -2.384834,
                        49.403873
                    ],
                    [
                        -2.385274,
                        49.404026
                    ],
                    [
                        -2.385911,
                        49.404219
                    ],
                    [
                        -2.386397,
                        49.404424
                    ],
                    [
                        -2.386953,
                        49.404641
                    ],
                    [
                        -2.387681,
                        49.40484
                    ],
                    [
                        -2.38849,
                        49.405046
                    ],
                    [
                        -2.389235,
                        49.405298
                    ],
                    [
                        -2.389882,
                        49.405515
                    ],
                    [
                        -2.390583,
                        49.405708
                    ],
                    [
                        -2.391337,
                        49.405931
                    ],
                    [
                        -2.392056,
                        49.406165
                    ],
                    [
                        -2.392658,
                        49.406335
                    ],
                    [
                        -2.393313,
                        49.406535
                    ],
                    [
                        -2.394014,
                        49.406757
                    ],
                    [
                        -2.394652,
                        49.407021
                    ],
                    [
                        -2.395307,
                        49.407314
                    ],
                    [
                        -2.395882,
                        49.407543
                    ],
                    [
                        -2.396421,
                        49.407765
                    ],
                    [
                        -2.396933,
                        49.407994
                    ],
                    [
                        -2.397365,
                        49.408188
                    ],
                    [
                        -2.397859,
                        49.40844
                    ],
                    [
                        -2.398326,
                        49.40868
                    ],
                    [
                        -2.399053,
                        49.408879
                    ],
                    [
                        -2.399934,
                        49.409178
                    ],
                    [
                        -2.400697,
                        49.409477
                    ],
                    [
                        -2.401452,
                        49.409782
                    ],
                    [
                        -2.402188,
                        49.410075
                    ],
                    [
                        -2.402871,
                        49.410409
                    ],
                    [
                        -2.403167,
                        49.410673
                    ],
                    [
                        -2.402781,
                        49.411013
                    ],
                    [
                        -2.40235,
                        49.411529
                    ],
                    [
                        -2.401793,
                        49.412191
                    ],
                    [
                        -2.401398,
                        49.412865
                    ],
                    [
                        -2.401056,
                        49.413427
                    ],
                    [
                        -2.400706,
                        49.414014
                    ],
                    [
                        -2.400347,
                        49.414623
                    ],
                    [
                        -2.399925,
                        49.415326
                    ],
                    [
                        -2.399556,
                        49.415977
                    ],
                    [
                        -2.399206,
                        49.416616
                    ],
                    [
                        -2.39873,
                        49.41726
                    ],
                    [
                        -2.398074,
                        49.417987
                    ],
                    [
                        -2.397553,
                        49.41862
                    ],
                    [
                        -2.396862,
                        49.419306
                    ],
                    [
                        -2.396107,
                        49.41995
                    ],
                    [
                        -2.395299,
                        49.420548
                    ],
                    [
                        -2.394212,
                        49.420958
                    ],
                    [
                        -2.393313,
                        49.421497
                    ],
                    [
                        -2.392352,
                        49.422019
                    ],
                    [
                        -2.391517,
                        49.422634
                    ],
                    [
                        -2.390762,
                        49.42329
                    ],
                    [
                        -2.389882,
                        49.423882
                    ],
                    [
                        -2.388939,
                        49.424462
                    ],
                    [
                        -2.387924,
                        49.424978
                    ],
                    [
                        -2.387304,
                        49.425564
                    ],
                    [
                        -2.386747,
                        49.426033
                    ],
                    [
                        -2.386253,
                        49.426449
                    ],
                    [
                        -2.38566,
                        49.42656
                    ],
                    [
                        -2.385319,
                        49.426841
                    ],
                    [
                        -2.385337,
                        49.427117
                    ],
                    [
                        -2.385453,
                        49.427275
                    ],
                    [
                        -2.385444,
                        49.427369
                    ],
                    [
                        -2.385408,
                        49.427515
                    ],
                    [
                        -2.385139,
                        49.427644
                    ],
                    [
                        -2.384717,
                        49.427761
                    ],
                    [
                        -2.384259,
                        49.427867
                    ],
                    [
                        -2.383783,
                        49.427984
                    ],
                    [
                        -2.38319,
                        49.428148
                    ],
                    [
                        -2.382507,
                        49.428335
                    ],
                    [
                        -2.381905,
                        49.428541
                    ],
                    [
                        -2.381321,
                        49.428693
                    ],
                    [
                        -2.380764,
                        49.428828
                    ],
                    [
                        -2.380127,
                        49.428904
                    ],
                    [
                        -2.379444,
                        49.428957
                    ],
                    [
                        -2.378824,
                        49.42908
                    ],
                    [
                        -2.378312,
                        49.429132
                    ],
                    [
                        -2.377944,
                        49.429279
                    ],
                    [
                        -2.377674,
                        49.429443
                    ],
                    [
                        -2.377647,
                        49.429595
                    ],
                    [
                        -2.377809,
                        49.429507
                    ],
                    [
                        -2.377737,
                        49.429349
                    ],
                    [
                        -2.377629,
                        49.429507
                    ],
                    [
                        -2.377593,
                        49.429484
                    ],
                    [
                        -2.377584,
                        49.429478
                    ],
                    [
                        -2.377575,
                        49.429478
                    ],
                    [
                        -2.377557,
                        49.429478
                    ],
                    [
                        -2.377557,
                        49.429478
                    ],
                    [
                        -2.377548,
                        49.429496
                    ],
                    [
                        -2.377548,
                        49.429496
                    ],
                    [
                        -2.377548,
                        49.429496
                    ],
                    [
                        -2.377531,
                        49.429496
                    ],
                    [
                        -2.377531,
                        49.429496
                    ],
                    [
                        -2.377531,
                        49.429496
                    ],
                    [
                        -2.377531,
                        49.429496
                    ],
                    [
                        -2.377531,
                        49.429496
                    ],
                    [
                        -2.377522,
                        49.429496
                    ],
                    [
                        -2.377522,
                        49.429496
                    ]
                ]
            }
        }
    ]
}