{
    "type": "FeatureCollection",
    "features": [
        {
            "type": "Feature",
            "geometry": {
                "type": "LineString",
                "coordinates": [
                    [
                        -2.206956,
                        49.176018
                    ],
                    [
                        -2.206633,
                        49.175582
                    ],
                    [
                        -2.206588,
                        49.175099
                    ],
                    [
                        -2.206732,
                        49.174634
                    ],
                    [
                        -2.207055,
                        49.174233
                    ],
                    [
                        -2.207441,
                        49.173886
                    ],
                    [
                        -2.20781,
                        49.173497
                    ],
                    [
                        -2.208259,
                        49.173161
                    ],
                    [
                        -2.208708,
                        49.172885
                    ],
                    [
                        -2.209175,
                        49.172602
                    ],
                    [
                        -2.209633,
                        49.172278
                    ],
                    [
                        -2.209992,
                        49.171942
                    ],
                    [
                        -2.210208,
                        49.171989
                    ],
                    [
                        -2.210433,
                        49.17193
                    ],
                    [
                        -2.210675,
                        49.171795
                    ],
                    [
                        -2.210927,
                        49.171695
                    ],
                    [
                        -2.211187,
                        49.171565
                    ],
                    [
                        -2.211421,
                        49.171371
                    ],
                    [
                        -2.211654,
                        49.171218
                    ],
                    [
                        -2.211825,
                        49.1711
                    ],
                    [
                        -2.21222,
                        49.171065
                    ],
                    [
                        -2.212696,
                        49.171023
                    ],
                    [
                        -2.212948,
                        49.170888
                    ],
                    [
                        -2.213406,
                        49.170605
                    ],
                    [
                        -2.214062,
                        49.170216
                    ],
                    [
                        -2.214744,
                        49.169834
                    ],
                    [
                        -2.215499,
                        49.169516
                    ],
                    [
                        -2.21628,
                        49.169245
                    ],
                    [
                        -2.217017,
                        49.168932
                    ],
                    [
                        -2.217574,
                        49.168703
                    ],
                    [
                        -2.218113,
                        49.16855
                    ],
                    [
                        -2.218679,
                        49.168385
                    ],
                    [
                        -2.21937,
                        49.168173
                    ],
                    [
                        -2.220071,
                        49.168002
                    ],
                    [
                        -2.220628,
                        49.167878
                    ],
                    [
                        -2.22123,
                        49.167801
                    ],
                    [
                        -2.221832,
                        49.167678
                    ],
                    [
                        -2.222362,
                        49.167554
                    ],
                    [
                        -2.222847,
                        49.167419
                    ],
                    [
                        -2.22344,
                        49.167254
                    ],
                    [
                        -2.223907,
                        49.167153
                    ],
                    [
                        -2.224293,
                        49.167065
                    ],
                    [
                        -2.224679,
                        49.166977
                    ],
                    [
                        -2.225146,
                        49.166912
                    ],
                    [
                        -2.225542,
                        49.166835
                    ],
                    [
                        -2.226027,
                        49.166729
                    ],
                    [
                        -2.226548,
                        49.16667
                    ],
                    [
                        -2.226943,
                        49.166653
                    ],
                    [
                        -2.227266,
                        49.166612
                    ],
                    [
                        -2.227769,
                        49.166606
                    ],
                    [
                        -2.228209,
                        49.166582
                    ],
                    [
                        -2.228766,
                        49.166482
                    ],
                    [
                        -2.22944,
                        49.166264
                    ],
                    [
                        -2.230114,
                        49.166111
                    ],
                    [
                        -2.230644,
                        49.166011
                    ],
                    [
                        -2.231084,
                        49.165911
                    ],
                    [
                        -2.231443,
                        49.16581
                    ],
                    [
                        -2.23183,
                        49.165669
                    ],
                    [
                        -2.232288,
                        49.16541
                    ],
                    [
                        -2.232701,
                        49.165274
                    ],
                    [
                        -2.232872,
                        49.165151
                    ],
                    [
                        -2.233105,
                        49.164998
                    ],
                    [
                        -2.233249,
                        49.164927
                    ],
                    [
                        -2.233348,
                        49.164785
                    ],
                    [
                        -2.23359,
                        49.164656
                    ],
                    [
                        -2.233752,
                        49.16455
                    ],
                    [
                        -2.23377,
                        49.16445
                    ],
                    [
                        -2.233869,
                        49.164338
                    ],
                    [
                        -2.234039,
                        49.16419
                    ],
                    [
                        -2.234039,
                        49.164096
                    ],
                    [
                        -2.23412,
                        49.163978
                    ],
                    [
                        -2.234192,
                        49.16392
                    ],
                    [
                        -2.234255,
                        49.163772
                    ],
                    [
                        -2.23456,
                        49.163601
                    ],
                    [
                        -2.234902,
                        49.163407
                    ],
                    [
                        -2.235297,
                        49.163189
                    ],
                    [
                        -2.23562,
                        49.163089
                    ],
                    [
                        -2.235836,
                        49.163006
                    ],
                    [
                        -2.235989,
                        49.162924
                    ],
                    [
                        -2.236132,
                        49.162877
                    ],
                    [
                        -2.236303,
                        49.1628
                    ],
                    [
                        -2.236357,
                        49.162759
                    ],
                    [
                        -2.236474,
                        49.162677
                    ],
                    [
                        -2.236483,
                        49.162653
                    ],
                    [
                        -2.236483,
                        49.162517
                    ],
                    [
                        -2.236465,
                        49.162459
                    ],
                    [
                        -2.236402,
                        49.162388
                    ],
                    [
                        -2.236375,
                        49.162347
                    ],
                    [
                        -2.236465,
                        49.1623
                    ],
                    [
                        -2.236752,
                        49.162211
                    ],
                    [
                        -2.237084,
                        49.162152
                    ],
                    [
                        -2.237453,
                        49.162093
                    ],
                    [
                        -2.237776,
                        49.162105
                    ],
                    [
                        -2.238109,
                        49.162105
                    ],
                    [
                        -2.238423,
                        49.162082
                    ],
                    [
                        -2.238773,
                        49.162076
                    ],
                    [
                        -2.239186,
                        49.162023
                    ],
                    [
                        -2.239564,
                        49.162046
                    ],
                    [
                        -2.239815,
                        49.162076
                    ],
                    [
                        -2.240049,
                        49.162087
                    ],
                    [
                        -2.240148,
                        49.162087
                    ],
                    [
                        -2.24039,
                        49.162076
                    ],
                    [
                        -2.240696,
                        49.162087
                    ],
                    [
                        -2.240965,
                        49.162087
                    ],
                    [
                        -2.241154,
                        49.162093
                    ],
                    [
                        -2.241531,
                        49.161958
                    ],
                    [
                        -2.242097,
                        49.161769
                    ],
                    [
                        -2.242717,
                        49.161422
                    ],
                    [
                        -2.243094,
                        49.16088
                    ],
                    [
                        -2.243444,
                        49.16052
                    ],
                    [
                        -2.24401,
                        49.160397
                    ],
                    [
                        -2.244567,
                        49.160332
                    ],
                    [
                        -2.245088,
                        49.160291
                    ],
                    [
                        -2.2456,
                        49.160255
                    ],
                    [
                        -2.246058,
                        49.160249
                    ],
                    [
                        -2.246454,
                        49.160267
                    ],
                    [
                        -2.246795,
                        49.160202
                    ],
                    [
                        -2.247208,
                        49.160143
                    ],
                    [
                        -2.24754,
                        49.160061
                    ],
                    [
                        -2.248008,
                        49.159978
                    ],
                    [
                        -2.248367,
                        49.159931
                    ],
                    [
                        -2.248789,
                        49.159849
                    ],
                    [
                        -2.249256,
                        49.15976
                    ],
                    [
                        -2.249633,
                        49.159713
                    ],
                    [
                        -2.249966,
                        49.159666
                    ],
                    [
                        -2.250181,
                        49.159666
                    ],
                    [
                        -2.250532,
                        49.159531
                    ],
                    [
                        -2.250936,
                        49.159436
                    ],
                    [
                        -2.251223,
                        49.159342
                    ],
                    [
                        -2.251565,
                        49.15923
                    ],
                    [
                        -2.251933,
                        49.159183
                    ],
                    [
                        -2.252256,
                        49.159071
                    ],
                    [
                        -2.252724,
                        49.158965
                    ],
                    [
                        -2.253191,
                        49.158835
                    ],
                    [
                        -2.253622,
                        49.158741
                    ],
                    [
                        -2.253999,
                        49.158612
                    ],
                    [
                        -2.25443,
                        49.158476
                    ],
                    [
                        -2.254879,
                        49.158364
                    ],
                    [
                        -2.255275,
                        49.158235
                    ],
                    [
                        -2.255643,
                        49.158099
                    ],
                    [
                        -2.255948,
                        49.157863
                    ],
                    [
                        -2.256514,
                        49.157663
                    ],
                    [
                        -2.25699,
                        49.157533
                    ],
                    [
                        -2.257368,
                        49.157251
                    ],
                    [
                        -2.257826,
                        49.15698
                    ],
                    [
                        -2.258311,
                        49.156785
                    ],
                    [
                        -2.258742,
                        49.156638
                    ],
                    [
                        -2.259083,
                        49.156502
                    ],
                    [
                        -2.259407,
                        49.156361
                    ],
                    [
                        -2.259748,
                        49.15622
                    ],
                    [
                        -2.260045,
                        49.156043
                    ],
                    [
                        -2.260341,
                        49.155878
                    ],
                    [
                        -2.260844,
                        49.155607
                    ],
                    [
                        -2.261329,
                        49.155383
                    ],
                    [
                        -2.261652,
                        49.155159
                    ],
                    [
                        -2.261985,
                        49.15487
                    ],
                    [
                        -2.262461,
                        49.154593
                    ],
                    [
                        -2.262829,
                        49.154358
                    ],
                    [
                        -2.263224,
                        49.154034
                    ],
                    [
                        -2.263718,
                        49.153721
                    ],
                    [
                        -2.264141,
                        49.153403
                    ],
                    [
                        -2.264554,
                        49.153103
                    ],
                    [
                        -2.264859,
                        49.152802
                    ],
                    [
                        -2.26512,
                        49.152519
                    ],
                    [
                        -2.265407,
                        49.152178
                    ],
                    [
                        -2.264796,
                        49.152325
                    ],
                    [
                        -2.264222,
                        49.152667
                    ],
                    [
                        -2.263772,
                        49.15302
                    ],
                    [
                        -2.26335,
                        49.153321
                    ],
                    [
                        -2.262883,
                        49.153639
                    ],
                    [
                        -2.262344,
                        49.153992
                    ],
                    [
                        -2.261877,
                        49.154352
                    ],
                    [
                        -2.261365,
                        49.154717
                    ],
                    [
                        -2.260799,
                        49.155124
                    ],
                    [
                        -2.260161,
                        49.15556
                    ],
                    [
                        -2.259676,
                        49.155984
                    ],
                    [
                        -2.259236,
                        49.15639
                    ],
                    [
                        -2.258796,
                        49.156785
                    ],
                    [
                        -2.258257,
                        49.157209
                    ],
                    [
                        -2.25779,
                        49.157628
                    ],
                    [
                        -2.257215,
                        49.158064
                    ],
                    [
                        -2.25673,
                        49.158458
                    ],
                    [
                        -2.256164,
                        49.158865
                    ],
                    [
                        -2.255607,
                        49.159283
                    ],
                    [
                        -2.254906,
                        49.159749
                    ],
                    [
                        -2.254251,
                        49.160208
                    ],
                    [
                        -2.253595,
                        49.160638
                    ],
                    [
                        -2.252993,
                        49.161056
                    ],
                    [
                        -2.252382,
                        49.161498
                    ],
                    [
                        -2.251825,
                        49.161946
                    ],
                    [
                        -2.251232,
                        49.162382
                    ],
                    [
                        -2.250657,
                        49.162824
                    ],
                    [
                        -2.250163,
                        49.163295
                    ],
                    [
                        -2.24949,
                        49.163755
                    ],
                    [
                        -2.248807,
                        49.164261
                    ],
                    [
                        -2.248196,
                        49.16478
                    ],
                    [
                        -2.247585,
                        49.165274
                    ],
                    [
                        -2.247028,
                        49.165728
                    ],
                    [
                        -2.246516,
                        49.166146
                    ],
                    [
                        -2.246013,
                        49.166588
                    ],
                    [
                        -2.245555,
                        49.16703
                    ],
                    [
                        -2.245016,
                        49.167513
                    ],
                    [
                        -2.244549,
                        49.168002
                    ],
                    [
                        -2.244001,
                        49.168532
                    ],
                    [
                        -2.24357,
                        49.16905
                    ],
                    [
                        -2.243354,
                        49.169298
                    ],
                    [
                        -2.243606,
                        49.168879
                    ],
                    [
                        -2.2441,
                        49.168514
                    ],
                    [
                        -2.244477,
                        49.168308
                    ],
                    [
                        -2.244783,
                        49.168131
                    ],
                    [
                        -2.244944,
                        49.167943
                    ],
                    [
                        -2.245205,
                        49.167772
                    ],
                    [
                        -2.245537,
                        49.167607
                    ],
                    [
                        -2.245933,
                        49.167383
                    ],
                    [
                        -2.246445,
                        49.167195
                    ],
                    [
                        -2.24675,
                        49.167018
                    ],
                    [
                        -2.246966,
                        49.166824
                    ],
                    [
                        -2.247325,
                        49.1666
                    ],
                    [
                        -2.247612,
                        49.166352
                    ],
                    [
                        -2.247846,
                        49.166117
                    ],
                    [
                        -2.248178,
                        49.165887
                    ],
                    [
                        -2.248547,
                        49.165663
                    ],
                    [
                        -2.248933,
                        49.165404
                    ],
                    [
                        -2.2494,
                        49.165174
                    ],
                    [
                        -2.249858,
                        49.164933
                    ],
                    [
                        -2.250424,
                        49.164585
                    ],
                    [
                        -2.251017,
                        49.164179
                    ],
                    [
                        -2.251601,
                        49.163707
                    ],
                    [
                        -2.252158,
                        49.163272
                    ],
                    [
                        -2.252768,
                        49.162812
                    ],
                    [
                        -2.253352,
                        49.162441
                    ],
                    [
                        -2.253873,
                        49.162117
                    ],
                    [
                        -2.254331,
                        49.161793
                    ],
                    [
                        -2.254763,
                        49.161475
                    ],
                    [
                        -2.255194,
                        49.161174
                    ],
                    [
                        -2.255589,
                        49.160886
                    ],
                    [
                        -2.255805,
                        49.160621
                    ],
                    [
                        -2.2562,
                        49.160308
                    ],
                    [
                        -2.256577,
                        49.159972
                    ],
                    [
                        -2.257035,
                        49.159648
                    ],
                    [
                        -2.257466,
                        49.159313
                    ],
                    [
                        -2.257817,
                        49.159
                    ],
                    [
                        -2.258221,
                        49.158653
                    ],
                    [
                        -2.258616,
                        49.158293
                    ],
                    [
                        -2.258922,
                        49.157946
                    ],
                    [
                        -2.259326,
                        49.157586
                    ],
                    [
                        -2.259613,
                        49.157233
                    ],
                    [
                        -2.260027,
                        49.156915
                    ],
                    [
                        -2.260314,
                        49.156632
                    ],
                    [
                        -2.26061,
                        49.156349
                    ],
                    [
                        -2.260754,
                        49.156119
                    ],
                    [
                        -2.260943,
                        49.155784
                    ],
                    [
                        -2.261248,
                        49.155513
                    ],
                    [
                        -2.261509,
                        49.155242
                    ],
                    [
                        -2.261652,
                        49.154929
                    ],
                    [
                        -2.26212,
                        49.15457
                    ],
                    [
                        -2.262479,
                        49.154311
                    ],
                    [
                        -2.262676,
                        49.154004
                    ],
                    [
                        -2.263027,
                        49.15371
                    ],
                    [
                        -2.263467,
                        49.153356
                    ],
                    [
                        -2.26379,
                        49.153056
                    ],
                    [
                        -2.264096,
                        49.152779
                    ],
                    [
                        -2.264311,
                        49.152484
                    ],
                    [
                        -2.264374,
                        49.152231
                    ],
                    [
                        -2.264536,
                        49.151871
                    ],
                    [
                        -2.264895,
                        49.151506
                    ],
                    [
                        -2.265219,
                        49.151182
                    ],
                    [
                        -2.265614,
                        49.15084
                    ],
                    [
                        -2.265991,
                        49.15054
                    ],
                    [
                        -2.26627,
                        49.15021
                    ],
                    [
                        -2.266611,
                        49.14988
                    ],
                    [
                        -2.266916,
                        49.149579
                    ],
                    [
                        -2.267222,
                        49.149279
                    ],
                    [
                        -2.267563,
                        49.148972
                    ],
                    [
                        -2.267913,
                        49.148695
                    ],
                    [
                        -2.268219,
                        49.148406
                    ],
                    [
                        -2.268578,
                        49.1481
                    ],
                    [
                        -2.268964,
                        49.147776
                    ],
                    [
                        -2.269414,
                        49.147381
                    ],
                    [
                        -2.269962,
                        49.146986
                    ],
                    [
                        -2.27042,
                        49.146627
                    ],
                    [
                        -2.270725,
                        49.146273
                    ],
                    [
                        -2.271093,
                        49.145914
                    ],
                    [
                        -2.271408,
                        49.145566
                    ],
                    [
                        -2.271794,
                        49.145195
                    ],
                    [
                        -2.272234,
                        49.144824
                    ],
                    [
                        -2.272647,
                        49.144517
                    ],
                    [
                        -2.272989,
                        49.144175
                    ],
                    [
                        -2.273339,
                        49.143863
                    ],
                    [
                        -2.273734,
                        49.143539
                    ],
                    [
                        -2.274156,
                        49.143203
                    ],
                    [
                        -2.274579,
                        49.142902
                    ],
                    [
                        -2.274884,
                        49.142572
                    ],
                    [
                        -2.275297,
                        49.142254
                    ],
                    [
                        -2.275675,
                        49.141983
                    ],
                    [
                        -2.276052,
                        49.141659
                    ],
                    [
                        -2.276564,
                        49.141293
                    ],
                    [
                        -2.277094,
                        49.140975
                    ],
                    [
                        -2.277552,
                        49.140622
                    ],
                    [
                        -2.277983,
                        49.140239
                    ],
                    [
                        -2.278423,
                        49.139926
                    ],
                    [
                        -2.278792,
                        49.139561
                    ],
                    [
                        -2.279241,
                        49.139184
                    ],
                    [
                        -2.279627,
                        49.138865
                    ],
                    [
                        -2.279932,
                        49.138553
                    ],
                    [
                        -2.280247,
                        49.138176
                    ],
                    [
                        -2.280669,
                        49.137793
                    ],
                    [
                        -2.2811,
                        49.13738
                    ],
                    [
                        -2.281603,
                        49.13695
                    ],
                    [
                        -2.282079,
                        49.136573
                    ],
                    [
                        -2.282484,
                        49.136225
                    ],
                    [
                        -2.282654,
                        49.135865
                    ],
                    [
                        -2.28287,
                        49.135494
                    ],
                    [
                        -2.283175,
                        49.135146
                    ],
                    [
                        -2.283463,
                        49.134775
                    ],
                    [
                        -2.28384,
                        49.134333
                    ],
                    [
                        -2.284388,
                        49.133873
                    ],
                    [
                        -2.284927,
                        49.133443
                    ],
                    [
                        -2.285502,
                        49.132912
                    ],
                    [
                        -2.286059,
                        49.132488
                    ],
                    [
                        -2.286589,
                        49.132075
                    ],
                    [
                        -2.287208,
                        49.131662
                    ],
                    [
                        -2.287119,
                        49.131763
                    ],
                    [
                        -2.286948,
                        49.132128
                    ],
                    [
                        -2.286858,
                        49.132494
                    ],
                    [
                        -2.286786,
                        49.132835
                    ],
                    [
                        -2.286652,
                        49.133236
                    ],
                    [
                        -2.286625,
                        49.13359
                    ],
                    [
                        -2.286571,
                        49.133755
                    ],
                    [
                        -2.286553,
                        49.134014
                    ],
                    [
                        -2.286499,
                        49.134321
                    ],
                    [
                        -2.286409,
                        49.134775
                    ],
                    [
                        -2.2864,
                        49.135199
                    ],
                    [
                        -2.286382,
                        49.135647
                    ],
                    [
                        -2.286373,
                        49.136101
                    ],
                    [
                        -2.286346,
                        49.136561
                    ],
                    [
                        -2.286364,
                        49.136967
                    ],
                    [
                        -2.286382,
                        49.137392
                    ],
                    [
                        -2.286382,
                        49.137828
                    ],
                    [
                        -2.286445,
                        49.138241
                    ],
                    [
                        -2.286409,
                        49.138718
                    ],
                    [
                        -2.286337,
                        49.139195
                    ],
                    [
                        -2.286364,
                        49.139655
                    ],
                    [
                        -2.286373,
                        49.140127
                    ],
                    [
                        -2.2864,
                        49.140598
                    ],
                    [
                        -2.286508,
                        49.141028
                    ],
                    [
                        -2.286499,
                        49.141529
                    ],
                    [
                        -2.28658,
                        49.141959
                    ],
                    [
                        -2.286634,
                        49.142407
                    ],
                    [
                        -2.28667,
                        49.142849
                    ],
                    [
                        -2.286705,
                        49.143285
                    ],
                    [
                        -2.286741,
                        49.143733
                    ],
                    [
                        -2.286732,
                        49.144199
                    ],
                    [
                        -2.286813,
                        49.144635
                    ],
                    [
                        -2.286813,
                        49.145101
                    ],
                    [
                        -2.286822,
                        49.145566
                    ],
                    [
                        -2.286795,
                        49.146038
                    ],
                    [
                        -2.286732,
                        49.146538
                    ],
                    [
                        -2.286696,
                        49.14701
                    ],
                    [
                        -2.286589,
                        49.147517
                    ],
                    [
                        -2.286526,
                        49.148059
                    ],
                    [
                        -2.286517,
                        49.148571
                    ],
                    [
                        -2.286499,
                        49.149102
                    ],
                    [
                        -2.286382,
                        49.149644
                    ],
                    [
                        -2.286373,
                        49.150151
                    ],
                    [
                        -2.286301,
                        49.150551
                    ],
                    [
                        -2.286265,
                        49.150899
                    ],
                    [
                        -2.286247,
                        49.151253
                    ],
                    [
                        -2.286256,
                        49.15163
                    ],
                    [
                        -2.286292,
                        49.15196
                    ],
                    [
                        -2.286283,
                        49.152296
                    ],
                    [
                        -2.28631,
                        49.15272
                    ],
                    [
                        -2.286391,
                        49.153168
                    ],
                    [
                        -2.286409,
                        49.153586
                    ],
                    [
                        -2.286364,
                        49.154051
                    ],
                    [
                        -2.286409,
                        49.154493
                    ],
                    [
                        -2.286499,
                        49.154976
                    ],
                    [
                        -2.286544,
                        49.155483
                    ],
                    [
                        -2.286679,
                        49.155996
                    ],
                    [
                        -2.286804,
                        49.156449
                    ],
                    [
                        -2.286876,
                        49.156897
                    ],
                    [
                        -2.286948,
                        49.157404
                    ],
                    [
                        -2.287074,
                        49.157863
                    ],
                    [
                        -2.287235,
                        49.158246
                    ],
                    [
                        -2.287415,
                        49.158623
                    ],
                    [
                        -2.287523,
                        49.159042
                    ],
                    [
                        -2.287738,
                        49.159484
                    ],
                    [
                        -2.287927,
                        49.159831
                    ],
                    [
                        -2.288026,
                        49.160255
                    ],
                    [
                        -2.288197,
                        49.160727
                    ],
                    [
                        -2.288322,
                        49.161204
                    ],
                    [
                        -2.288448,
                        49.161769
                    ],
                    [
                        -2.288574,
                        49.162317
                    ],
                    [
                        -2.288664,
                        49.162906
                    ],
                    [
                        -2.288834,
                        49.163484
                    ],
                    [
                        -2.288897,
                        49.164084
                    ],
                    [
                        -2.289005,
                        49.164662
                    ],
                    [
                        -2.289185,
                        49.165221
                    ],
                    [
                        -2.289355,
                        49.165793
                    ],
                    [
                        -2.28958,
                        49.166317
                    ],
                    [
                        -2.289796,
                        49.166853
                    ],
                    [
                        -2.290056,
                        49.167366
                    ],
                    [
                        -2.290173,
                        49.167949
                    ],
                    [
                        -2.290379,
                        49.168508
                    ],
                    [
                        -2.290631,
                        49.169044
                    ],
                    [
                        -2.290838,
                        49.16958
                    ],
                    [
                        -2.291098,
                        49.17014
                    ],
                    [
                        -2.291323,
                        49.170688
                    ],
                    [
                        -2.291547,
                        49.171206
                    ],
                    [
                        -2.291763,
                        49.171724
                    ],
                    [
                        -2.292023,
                        49.172237
                    ],
                    [
                        -2.29232,
                        49.172731
                    ],
                    [
                        -2.292526,
                        49.17322
                    ],
                    [
                        -2.292814,
                        49.173727
                    ],
                    [
                        -2.293119,
                        49.17421
                    ],
                    [
                        -2.29338,
                        49.174693
                    ],
                    [
                        -2.293622,
                        49.175199
                    ],
                    [
                        -2.293883,
                        49.175706
                    ],
                    [
                        -2.294143,
                        49.176218
                    ],
                    [
                        -2.29444,
                        49.176725
                    ],
                    [
                        -2.294619,
                        49.177313
                    ],
                    [
                        -2.294835,
                        49.177902
                    ],
                    [
                        -2.295095,
                        49.17845
                    ],
                    [
                        -2.295374,
                        49.178998
                    ],
                    [
                        -2.295688,
                        49.179545
                    ],
                    [
                        -2.295958,
                        49.180087
                    ],
                    [
                        -2.296209,
                        49.180653
                    ],
                    [
                        -2.296452,
                        49.181247
                    ],
                    [
                        -2.296748,
                        49.181836
                    ],
                    [
                        -2.296991,
                        49.182413
                    ],
                    [
                        -2.297233,
                        49.183049
                    ],
                    [
                        -2.297494,
                        49.183703
                    ],
                    [
                        -2.297754,
                        49.184339
                    ],
                    [
                        -2.298006,
                        49.184951
                    ],
                    [
                        -2.298257,
                        49.185564
                    ],
                    [
                        -2.29859,
                        49.186152
                    ],
                    [
                        -2.298823,
                        49.186794
                    ],
                    [
                        -2.299147,
                        49.18743
                    ],
                    [
                        -2.299434,
                        49.188025
                    ],
                    [
                        -2.299757,
                        49.188537
                    ],
                    [
                        -2.300018,
                        49.189102
                    ],
                    [
                        -2.30035,
                        49.189709
                    ],
                    [
                        -2.30071,
                        49.190209
                    ],
                    [
                        -2.300952,
                        49.190798
                    ],
                    [
                        -2.301285,
                        49.191404
                    ],
                    [
                        -2.301644,
                        49.19197
                    ],
                    [
                        -2.301976,
                        49.192629
                    ],
                    [
                        -2.302353,
                        49.193294
                    ],
                    [
                        -2.302686,
                        49.193954
                    ],
                    [
                        -2.303,
                        49.194619
                    ],
                    [
                        -2.303288,
                        49.195343
                    ],
                    [
                        -2.303584,
                        49.196067
                    ],
                    [
                        -2.303916,
                        49.196779
                    ],
                    [
                        -2.304249,
                        49.197509
                    ],
                    [
                        -2.30459,
                        49.198275
                    ],
                    [
                        -2.304914,
                        49.198969
                    ],
                    [
                        -2.305228,
                        49.199546
                    ],
                    [
                        -2.30556,
                        49.200259
                    ],
                    [
                        -2.305947,
                        49.200965
                    ],
                    [
                        -2.306342,
                        49.201654
                    ],
                    [
                        -2.306647,
                        49.202378
                    ],
                    [
                        -2.30698,
                        49.203096
                    ],
                    [
                        -2.307312,
                        49.203814
                    ],
                    [
                        -2.30768,
                        49.20452
                    ],
                    [
                        -2.30804,
                        49.205238
                    ],
                    [
                        -2.30839,
                        49.205945
                    ],
                    [
                        -2.308803,
                        49.206645
                    ],
                    [
                        -2.309144,
                        49.207351
                    ],
                    [
                        -2.30945,
                        49.208087
                    ],
                    [
                        -2.309782,
                        49.208799
                    ],
                    [
                        -2.31016,
                        49.209505
                    ],
                    [
                        -2.310447,
                        49.2102
                    ],
                    [
                        -2.310734,
                        49.210959
                    ],
                    [
                        -2.31104,
                        49.211742
                    ],
                    [
                        -2.311327,
                        49.212519
                    ],
                    [
                        -2.311669,
                        49.213295
                    ],
                    [
                        -2.311974,
                        49.214108
                    ],
                    [
                        -2.312235,
                        49.214914
                    ],
                    [
                        -2.312567,
                        49.215696
                    ],
                    [
                        -2.31289,
                        49.216485
                    ],
                    [
                        -2.313106,
                        49.217356
                    ],
                    [
                        -2.313375,
                        49.218186
                    ],
                    [
                        -2.313636,
                        49.218892
                    ],
                    [
                        -2.313869,
                        49.219651
                    ],
                    [
                        -2.314148,
                        49.220451
                    ],
                    [
                        -2.314444,
                        49.221251
                    ],
                    [
                        -2.314759,
                        49.22204
                    ],
                    [
                        -2.315091,
                        49.222846
                    ],
                    [
                        -2.315316,
                        49.223652
                    ],
                    [
                        -2.315603,
                        49.224411
                    ],
                    [
                        -2.315756,
                        49.225323
                    ],
                    [
                        -2.315909,
                        49.226241
                    ],
                    [
                        -2.31598,
                        49.227217
                    ],
                    [
                        -2.315953,
                        49.228229
                    ],
                    [
                        -2.315783,
                        49.229241
                    ],
                    [
                        -2.315891,
                        49.230206
                    ],
                    [
                        -2.316097,
                        49.231165
                    ],
                    [
                        -2.316349,
                        49.232082
                    ],
                    [
                        -2.316537,
                        49.233024
                    ],
                    [
                        -2.31669,
                        49.233959
                    ],
                    [
                        -2.316726,
                        49.234988
                    ],
                    [
                        -2.316771,
                        49.235982
                    ],
                    [
                        -2.316771,
                        49.236988
                    ],
                    [
                        -2.316798,
                        49.238006
                    ],
                    [
                        -2.316825,
                        49.239006
                    ],
                    [
                        -2.316771,
                        49.240053
                    ],
                    [
                        -2.316834,
                        49.241082
                    ],
                    [
                        -2.316798,
                        49.242094
                    ],
                    [
                        -2.316816,
                        49.243111
                    ],
                    [
                        -2.316861,
                        49.244093
                    ],
                    [
                        -2.316933,
                        49.245029
                    ],
                    [
                        -2.316762,
                        49.246052
                    ],
                    [
                        -2.316744,
                        49.247052
                    ],
                    [
                        -2.316771,
                        49.24804
                    ],
                    [
                        -2.316645,
                        49.249051
                    ],
                    [
                        -2.316618,
                        49.250074
                    ],
                    [
                        -2.31651,
                        49.251109
                    ],
                    [
                        -2.316196,
                        49.252174
                    ],
                    [
                        -2.316097,
                        49.25322
                    ],
                    [
                        -2.315891,
                        49.25429
                    ],
                    [
                        -2.31572,
                        49.255337
                    ],
                    [
                        -2.315423,
                        49.256407
                    ],
                    [
                        -2.315316,
                        49.257466
                    ],
                    [
                        -2.315262,
                        49.258447
                    ],
                    [
                        -2.315397,
                        49.259382
                    ],
                    [
                        -2.315423,
                        49.260317
                    ],
                    [
                        -2.315432,
                        49.261264
                    ],
                    [
                        -2.315397,
                        49.262251
                    ],
                    [
                        -2.315468,
                        49.26321
                    ],
                    [
                        -2.315477,
                        49.264138
                    ],
                    [
                        -2.31554,
                        49.265144
                    ],
                    [
                        -2.315675,
                        49.266108
                    ],
                    [
                        -2.315729,
                        49.267066
                    ],
                    [
                        -2.315666,
                        49.268071
                    ],
                    [
                        -2.315576,
                        49.269088
                    ],
                    [
                        -2.319466,
                        49.352418
                    ],
                    [
                        -2.31952,
                        49.353204
                    ],
                    [
                        -2.319493,
                        49.354073
                    ],
                    [
                        -2.319457,
                        49.354965
                    ],
                    [
                        -2.319502,
                        49.355839
                    ],
                    [
                        -2.319609,
                        49.356684
                    ],
                    [
                        -2.319717,
                        49.357488
                    ],
                    [
                        -2.319798,
                        49.35828
                    ],
                    [
                        -2.319933,
                        49.359154
                    ],
                    [
                        -2.320086,
                        49.359952
                    ],
                    [
                        -2.320202,
                        49.36078
                    ],
                    [
                        -2.32022,
                        49.361642
                    ],
                    [
                        -2.320229,
                        49.362499
                    ],
                    [
                        -2.320256,
                        49.363361
                    ],
                    [
                        -2.320328,
                        49.364235
                    ],
                    [
                        -2.320427,
                        49.365104
                    ],
                    [
                        -2.320642,
                        49.365872
                    ],
                    [
                        -2.320831,
                        49.366588
                    ],
                    [
                        -2.320948,
                        49.367403
                    ],
                    [
                        -2.321146,
                        49.368201
                    ],
                    [
                        -2.321307,
                        49.368999
                    ],
                    [
                        -2.321496,
                        49.36982
                    ],
                    [
                        -2.321702,
                        49.370589
                    ],
                    [
                        -2.321873,
                        49.371369
                    ],
                    [
                        -2.322071,
                        49.372137
                    ],
                    [
                        -2.322161,
                        49.372923
                    ],
                    [
                        -2.322241,
                        49.373727
                    ],
                    [
                        -2.322358,
                        49.374519
                    ],
                    [
                        -2.322547,
                        49.375275
                    ],
                    [
                        -2.322709,
                        49.376014
                    ],
                    [
                        -2.322852,
                        49.376771
                    ],
                    [
                        -2.322987,
                        49.377498
                    ],
                    [
                        -2.323104,
                        49.378214
                    ],
                    [
                        -2.323265,
                        49.378935
                    ],
                    [
                        -2.323409,
                        49.379674
                    ],
                    [
                        -2.323499,
                        49.380478
                    ],
                    [
                        -2.323697,
                        49.381182
                    ],
                    [
                        -2.323903,
                        49.381921
                    ],
                    [
                        -2.324191,
                        49.382601
                    ],
                    [
                        -2.324568,
                        49.383252
                    ],
                    [
                        -2.324855,
                        49.383938
                    ],
                    [
                        -2.325026,
                        49.384706
                    ],
                    [
                        -2.325224,
                        49.385463
                    ],
                    [
                        -2.32552,
                        49.386149
                    ],
                    [
                        -2.325835,
                        49.386835
                    ],
                    [
                        -2.326158,
                        49.387492
                    ],
                    [
                        -2.326445,
                        49.388102
                    ],
                    [
                        -2.326724,
                        49.388723
                    ],
                    [
                        -2.326948,
                        49.389333
                    ],
                    [
                        -2.3272,
                        49.389943
                    ],
                    [
                        -2.327478,
                        49.390512
                    ],
                    [
                        -2.327712,
                        49.391075
                    ],
                    [
                        -2.327963,
                        49.391585
                    ],
                    [
                        -2.328224,
                        49.392071
                    ],
                    [
                        -2.328475,
                        49.392564
                    ],
                    [
                        -2.3287,
                        49.393086
                    ],
                    [
                        -2.328952,
                        49.39359
                    ],
                    [
                        -2.329176,
                        49.394124
                    ],
                    [
                        -2.329383,
                        49.394675
                    ],
                    [
                        -2.329607,
                        49.395314
                    ],
                    [
                        -2.32994,
                        49.395859
                    ],
                    [
                        -2.330263,
                        49.396404
                    ],
                    [
                        -2.330568,
                        49.39692
                    ],
                    [
                        -2.330865,
                        49.397436
                    ],
                    [
                        -2.331161,
                        49.397958
                    ],
                    [
                        -2.331431,
                        49.398468
                    ],
                    [
                        -2.331646,
                        49.398972
                    ],
                    [
                        -2.331835,
                        49.399459
                    ],
                    [
                        -2.331979,
                        49.399904
                    ],
                    [
                        -2.332105,
                        49.400338
                    ],
                    [
                        -2.332185,
                        49.400754
                    ],
                    [
                        -2.332221,
                        49.401165
                    ],
                    [
                        -2.33214,
                        49.40147
                    ],
                    [
                        -2.33197,
                        49.40178
                    ],
                    [
                        -2.331727,
                        49.402015
                    ],
                    [
                        -2.331745,
                        49.402285
                    ],
                    [
                        -2.331943,
                        49.402636
                    ],
                    [
                        -2.332329,
                        49.402953
                    ],
                    [
                        -2.33276,
                        49.403217
                    ],
                    [
                        -2.333299,
                        49.403492
                    ],
                    [
                        -2.333838,
                        49.403832
                    ],
                    [
                        -2.334368,
                        49.404149
                    ],
                    [
                        -2.334907,
                        49.404401
                    ],
                    [
                        -2.335473,
                        49.404682
                    ],
                    [
                        -2.33603,
                        49.404946
                    ],
                    [
                        -2.336578,
                        49.405227
                    ],
                    [
                        -2.337054,
                        49.405667
                    ],
                    [
                        -2.337611,
                        49.405984
                    ],
                    [
                        -2.338168,
                        49.406341
                    ],
                    [
                        -2.338734,
                        49.406634
                    ],
                    [
                        -2.3393,
                        49.406992
                    ],
                    [
                        -2.339848,
                        49.407379
                    ],
                    [
                        -2.34036,
                        49.407848
                    ],
                    [
                        -2.340926,
                        49.408316
                    ],
                    [
                        -2.341483,
                        49.408809
                    ],
                    [
                        -2.342013,
                        49.409331
                    ],
                    [
                        -2.342525,
                        49.409846
                    ],
                    [
                        -2.343046,
                        49.410309
                    ],
                    [
                        -2.343647,
                        49.410667
                    ],
                    [
                        -2.344276,
                        49.411007
                    ],
                    [
                        -2.344824,
                        49.411558
                    ],
                    [
                        -2.345219,
                        49.412244
                    ],
                    [
                        -2.345669,
                        49.412877
                    ],
                    [
                        -2.346136,
                        49.413486
                    ],
                    [
                        -2.346621,
                        49.414043
                    ],
                    [
                        -2.347034,
                        49.414641
                    ],
                    [
                        -2.347519,
                        49.41518
                    ],
                    [
                        -2.347995,
                        49.41576
                    ],
                    [
                        -2.348633,
                        49.416235
                    ],
                    [
                        -2.349298,
                        49.416663
                    ],
                    [
                        -2.349855,
                        49.417196
                    ],
                    [
                        -2.350411,
                        49.417759
                    ],
                    [
                        -2.351022,
                        49.41828
                    ],
                    [
                        -2.351669,
                        49.418761
                    ],
                    [
                        -2.352154,
                        49.419136
                    ],
                    [
                        -2.352711,
                        49.419511
                    ],
                    [
                        -2.353304,
                        49.419868
                    ],
                    [
                        -2.354005,
                        49.420091
                    ],
                    [
                        -2.354768,
                        49.420232
                    ],
                    [
                        -2.355361,
                        49.420454
                    ],
                    [
                        -2.355801,
                        49.420337
                    ],
                    [
                        -2.355954,
                        49.420384
                    ],
                    [
                        -2.355792,
                        49.420431
                    ],
                    [
                        -2.355927,
                        49.420384
                    ],
                    [
                        -2.355981,
                        49.420402
                    ],
                    [
                        -2.355981,
                        49.420402
                    ],
                    [
                        -2.35599,
                        49.420407
                    ],
                    [
                        -2.35599,
                        49.420407
                    ],
                    [
                        -2.35599,
                        49.420413
                    ],
                    [
                        -2.355999,
                        49.420431
                    ],
                    [
                        -2.355999,
                        49.420437
                    ],
                    [
                        -2.355999,
                        49.420437
                    ],
                    [
                        -2.35599,
                        49.420448
                    ],
                    [
                        -2.355999,
                        49.420454
                    ],
                    [
                        -2.35599,
                        49.42046
                    ],
                    [
                        -2.35599,
                        49.420466
                    ],
                    [
                        -2.35599,
                        49.420472
                    ],
                    [
                        -2.355945,
                        49.420507
                    ],
                    [
                        -2.355936,
                        49.420513
                    ],
                    [
                        -2.355936,
                        49.420513
                    ],
                    [
                        -2.355936,
                        49.420513
                    ],
                    [
                        -2.355936,
                        49.420519
                    ],
                    [
                        -2.355945,
                        49.420519
                    ],
                    [
                        -2.355945,
                        49.420525
                    ],
                    [
                        -2.355945,
                        49.420525
                    ],
                    [
                        -2.355936,
                        49.420525
                    ],
                    [
                        -2.355936,
                        49.420525
                    ],
                    [
                        -2.355936,
                        49.42053
                    ],
                    [
                        -2.355936,
                        49.42053
                    ],
                    [
                        -2.355936,
                        49.42053
                    ],
                    [
                        -2.355945,
                        49.42053
                    ],
                    [
                        -2.355945,
                        49.42053
                    ],
                    [
                        -2.355945,
                        49.42053
                    ],
                    [
                        -2.355954,
                        49.420536
                    ],
                    [
                        -2.355954,
                        49.420536
                    ],
                    [
                        -2.355963,
                        49.42053
                    ],
                    [
                        -2.355963,
                        49.42053
                    ],
                    [
                        -2.355963,
                        49.42053
                    ],
                    [
                        -2.355972,
                        49.42053
                    ],
                    [
                        -2.355972,
                        49.42053
                    ],
                    [
                        -2.355972,
                        49.42053
                    ],
                    [
                        -2.355981,
                        49.420536
                    ],
                    [
                        -2.355981,
                        49.42053
                    ],
                    [
                        -2.355972,
                        49.420536
                    ],
                    [
                        -2.355972,
                        49.420536
                    ],
                    [
                        -2.355981,
                        49.420536
                    ],
                    [
                        -2.35599,
                        49.420536
                    ],
                    [
                        -2.35599,
                        49.420536
                    ],
                    [
                        -2.356008,
                        49.42053
                    ],
                    [
                        -2.356008,
                        49.42053
                    ],
                    [
                        -2.356008,
                        49.42053
                    ],
                    [
                        -2.356017,
                        49.420525
                    ],
                    [
                        -2.356017,
                        49.420525
                    ],
                    [
                        -2.356017,
                        49.420525
                    ],
                    [
                        -2.356026,
                        49.420525
                    ],
                    [
                        -2.356035,
                        49.420519
                    ],
                    [
                        -2.356035,
                        49.420513
                    ],
                    [
                        -2.356035,
                        49.420507
                    ],
                    [
                        -2.356044,
                        49.420507
                    ],
                    [
                        -2.356044,
                        49.420501
                    ],
                    [
                        -2.356044,
                        49.420495
                    ],
                    [
                        -2.356035,
                        49.420495
                    ],
                    [
                        -2.356035,
                        49.420495
                    ],
                    [
                        -2.356044,
                        49.420489
                    ],
                    [
                        -2.356044,
                        49.420489
                    ],
                    [
                        -2.356053,
                        49.420489
                    ],
                    [
                        -2.356053,
                        49.420484
                    ],
                    [
                        -2.356053,
                        49.420484
                    ],
                    [
                        -2.356053,
                        49.420484
                    ],
                    [
                        -2.356062,
                        49.420478
                    ],
                    [
                        -2.356062,
                        49.420478
                    ],
                    [
                        -2.356053,
                        49.420478
                    ],
                    [
                        -2.356053,
                        49.420478
                    ],
                    [
                        -2.356044,
                        49.420466
                    ],
                    [
                        -2.356044,
                        49.420466
                    ],
                    [
                        -2.356044,
                        49.420466
                    ],
                    [
                        -2.356044,
                        49.420466
                    ]
                ]
            }
        }
    ]
}