{
    "type": "FeatureCollection",
    "features": [
        {
            "type": "Feature",
            "geometry": {
                "type": "LineString",
                "coordinates": [
                    [
                        -3.176658,
                        48.862782
                    ],
                    [
                        -3.176326,
                        48.86318
                    ],
                    [
                        -3.175993,
                        48.863553
                    ],
                    [
                        -3.175805,
                        48.863909
                    ],
                    [
                        -3.175652,
                        48.864501
                    ],
                    [
                        -3.175311,
                        48.865046
                    ],
                    [
                        -3.174916,
                        48.865467
                    ],
                    [
                        -3.174538,
                        48.86587
                    ],
                    [
                        -3.174143,
                        48.866208
                    ],
                    [
                        -3.173972,
                        48.866297
                    ],
                    [
                        -3.173784,
                        48.866066
                    ],
                    [
                        -3.173676,
                        48.865805
                    ],
                    [
                        -3.173541,
                        48.865556
                    ],
                    [
                        -3.173451,
                        48.865455
                    ],
                    [
                        -3.173424,
                        48.865289
                    ],
                    [
                        -3.173344,
                        48.865046
                    ],
                    [
                        -3.173254,
                        48.864703
                    ],
                    [
                        -3.173056,
                        48.864371
                    ],
                    [
                        -3.172796,
                        48.864057
                    ],
                    [
                        -3.172436,
                        48.863671
                    ],
                    [
                        -3.172014,
                        48.863168
                    ],
                    [
                        -3.171763,
                        48.863381
                    ],
                    [
                        -3.171349,
                        48.864045
                    ],
                    [
                        -3.170855,
                        48.864626
                    ],
                    [
                        -3.170487,
                        48.865366
                    ],
                    [
                        -3.170065,
                        48.866161
                    ],
                    [
                        -3.169697,
                        48.866919
                    ],
                    [
                        -3.169382,
                        48.867796
                    ],
                    [
                        -3.169086,
                        48.867518
                    ],
                    [
                        -3.168601,
                        48.866967
                    ],
                    [
                        -3.168125,
                        48.866338
                    ],
                    [
                        -3.167541,
                        48.865746
                    ],
                    [
                        -3.167154,
                        48.86526
                    ],
                    [
                        -3.167145,
                        48.864632
                    ],
                    [
                        -3.167801,
                        48.863861
                    ],
                    [
                        -3.168592,
                        48.863144
                    ],
                    [
                        -3.169508,
                        48.862634
                    ],
                    [
                        -3.170316,
                        48.862077
                    ],
                    [
                        -3.171134,
                        48.86149
                    ],
                    [
                        -3.172104,
                        48.860957
                    ],
                    [
                        -3.173029,
                        48.860299
                    ],
                    [
                        -3.174026,
                        48.859695
                    ],
                    [
                        -3.174969,
                        48.859179
                    ],
                    [
                        -3.175859,
                        48.858604
                    ],
                    [
                        -3.176667,
                        48.858076
                    ],
                    [
                        -3.177485,
                        48.857484
                    ],
                    [
                        -3.178302,
                        48.856867
                    ],
                    [
                        -3.179119,
                        48.856174
                    ],
                    [
                        -3.17991,
                        48.855533
                    ],
                    [
                        -3.180781,
                        48.854887
                    ],
                    [
                        -3.181617,
                        48.854194
                    ],
                    [
                        -3.182407,
                        48.853506
                    ],
                    [
                        -3.183252,
                        48.852973
                    ],
                    [
                        -3.184132,
                        48.852344
                    ],
                    [
                        -3.185003,
                        48.85168
                    ],
                    [
                        -3.185875,
                        48.851028
                    ],
                    [
                        -3.186836,
                        48.850441
                    ],
                    [
                        -3.187986,
                        48.849937
                    ],
                    [
                        -3.189117,
                        48.849499
                    ],
                    [
                        -3.190411,
                        48.849179
                    ],
                    [
                        -3.191552,
                        48.84877
                    ],
                    [
                        -3.192612,
                        48.848248
                    ],
                    [
                        -3.193222,
                        48.847542
                    ],
                    [
                        -3.193717,
                        48.846783
                    ],
                    [
                        -3.19422,
                        48.845989
                    ],
                    [
                        -3.194642,
                        48.845165
                    ],
                    [
                        -3.195055,
                        48.844341
                    ],
                    [
                        -3.195486,
                        48.843523
                    ],
                    [
                        -3.195935,
                        48.842728
                    ],
                    [
                        -3.196304,
                        48.841898
                    ],
                    [
                        -3.196564,
                        48.84108
                    ],
                    [
                        -3.196789,
                        48.840232
                    ],
                    [
                        -3.197148,
                        48.839461
                    ],
                    [
                        -3.197229,
                        48.838744
                    ],
                    [
                        -3.197346,
                        48.838186
                    ],
                    [
                        -3.197588,
                        48.837463
                    ],
                    [
                        -3.197777,
                        48.836674
                    ],
                    [
                        -3.197876,
                        48.83585
                    ],
                    [
                        -3.197992,
                        48.835168
                    ],
                    [
                        -3.198289,
                        48.834515
                    ],
                    [
                        -3.198783,
                        48.833798
                    ],
                    [
                        -3.199259,
                        48.833098
                    ],
                    [
                        -3.199699,
                        48.832398
                    ],
                    [
                        -3.20013,
                        48.831788
                    ],
                    [
                        -3.200418,
                        48.831212
                    ],
                    [
                        -3.200508,
                        48.830584
                    ],
                    [
                        -3.200517,
                        48.829919
                    ],
                    [
                        -3.200579,
                        48.829267
                    ],
                    [
                        -3.200732,
                        48.828591
                    ],
                    [
                        -3.200885,
                        48.827992
                    ],
                    [
                        -3.201029,
                        48.827369
                    ],
                    [
                        -3.201244,
                        48.8268
                    ],
                    [
                        -3.201325,
                        48.82639
                    ],
                    [
                        -3.201352,
                        48.826082
                    ],
                    [
                        -3.20128,
                        48.825608
                    ],
                    [
                        -3.201298,
                        48.825181
                    ],
                    [
                        -3.201289,
                        48.824819
                    ],
                    [
                        -3.201289,
                        48.824487
                    ],
                    [
                        -3.201307,
                        48.824137
                    ],
                    [
                        -3.201316,
                        48.823757
                    ],
                    [
                        -3.201307,
                        48.823371
                    ],
                    [
                        -3.201388,
                        48.82298
                    ],
                    [
                        -3.201559,
                        48.822636
                    ],
                    [
                        -3.201729,
                        48.822292
                    ],
                    [
                        -3.201819,
                        48.821883
                    ],
                    [
                        -3.201954,
                        48.821497
                    ],
                    [
                        -3.202106,
                        48.821106
                    ],
                    [
                        -3.202259,
                        48.820732
                    ],
                    [
                        -3.20234,
                        48.820305
                    ],
                    [
                        -3.202376,
                        48.819895
                    ],
                    [
                        -3.20243,
                        48.819492
                    ],
                    [
                        -3.202511,
                        48.819101
                    ],
                    [
                        -3.20261,
                        48.818774
                    ],
                    [
                        -3.202726,
                        48.818353
                    ],
                    [
                        -3.202762,
                        48.817944
                    ],
                    [
                        -3.202744,
                        48.8176
                    ],
                    [
                        -3.202699,
                        48.817262
                    ],
                    [
                        -3.20269,
                        48.816781
                    ],
                    [
                        -3.202753,
                        48.816247
                    ],
                    [
                        -3.20296,
                        48.815701
                    ],
                    [
                        -3.203193,
                        48.815162
                    ],
                    [
                        -3.203472,
                        48.81464
                    ],
                    [
                        -3.203822,
                        48.814129
                    ],
                    [
                        -3.204199,
                        48.813619
                    ],
                    [
                        -3.204586,
                        48.81315
                    ],
                    [
                        -3.204945,
                        48.812705
                    ],
                    [
                        -3.205313,
                        48.812231
                    ],
                    [
                        -3.205709,
                        48.811774
                    ],
                    [
                        -3.206158,
                        48.811329
                    ],
                    [
                        -3.206589,
                        48.81092
                    ],
                    [
                        -3.207056,
                        48.810534
                    ],
                    [
                        -3.207523,
                        48.810125
                    ],
                    [
                        -3.208053,
                        48.809739
                    ],
                    [
                        -3.208511,
                        48.809276
                    ],
                    [
                        -3.208969,
                        48.808808
                    ],
                    [
                        -3.209436,
                        48.808452
                    ],
                    [
                        -3.210038,
                        48.808007
                    ],
                    [
                        -3.210649,
                        48.807645
                    ],
                    [
                        -3.211206,
                        48.807265
                    ],
                    [
                        -3.211727,
                        48.806844
                    ],
                    [
                        -3.212239,
                        48.806452
                    ],
                    [
                        -3.212733,
                        48.806048
                    ],
                    [
                        -3.213155,
                        48.805627
                    ],
                    [
                        -3.213622,
                        48.805224
                    ],
                    [
                        -3.214,
                        48.804832
                    ],
                    [
                        -3.214323,
                        48.804399
                    ],
                    [
                        -3.214422,
                        48.804257
                    ],
                    [
                        -3.214548,
                        48.804114
                    ],
                    [
                        -3.219326,
                        48.800779
                    ],
                    [
                        -3.219919,
                        48.800566
                    ],
                    [
                        -3.220135,
                        48.800477
                    ],
                    [
                        -3.221509,
                        48.799877
                    ],
                    [
                        -3.222291,
                        48.799723
                    ],
                    [
                        -3.223054,
                        48.799551
                    ],
                    [
                        -3.223827,
                        48.799355
                    ],
                    [
                        -3.224492,
                        48.799207
                    ],
                    [
                        -3.224995,
                        48.799207
                    ],
                    [
                        -3.225165,
                        48.799224
                    ],
                    [
                        -3.225192,
                        48.799254
                    ],
                    [
                        -3.225201,
                        48.799254
                    ],
                    [
                        -3.22521,
                        48.799254
                    ],
                    [
                        -3.22521,
                        48.799254
                    ],
                    [
                        -3.225228,
                        48.799266
                    ],
                    [
                        -3.225228,
                        48.799266
                    ],
                    [
                        -3.225237,
                        48.79926
                    ]
                ]
            }
        }
    ]
}