{
    "type": "FeatureCollection",
    "features": [
        {
            "type": "Feature",
            "geometry": {
                "type": "LineString",
                "coordinates": [
                    [
                        -2.039193,
                        48.658161
                    ],
                    [
                        -2.03869,
                        48.658649
                    ],
                    [
                        -2.038142,
                        48.659137
                    ],
                    [
                        -2.037756,
                        48.659494
                    ],
                    [
                        -2.037603,
                        48.659756
                    ],
                    [
                        -2.037577,
                        48.659893
                    ],
                    [
                        -2.037038,
                        48.661928
                    ],
                    [
                        -2.036858,
                        48.662482
                    ],
                    [
                        -2.03657,
                        48.662916
                    ],
                    [
                        -2.036292,
                        48.663386
                    ],
                    [
                        -2.035978,
                        48.663743
                    ],
                    [
                        -2.035627,
                        48.664053
                    ],
                    [
                        -2.035367,
                        48.664404
                    ],
                    [
                        -2.035097,
                        48.664743
                    ],
                    [
                        -2.034846,
                        48.665148
                    ],
                    [
                        -2.034558,
                        48.665683
                    ],
                    [
                        -2.034244,
                        48.666141
                    ],
                    [
                        -2.034055,
                        48.666653
                    ],
                    [
                        -2.033956,
                        48.667236
                    ],
                    [
                        -2.033669,
                        48.667956
                    ],
                    [
                        -2.033498,
                        48.668551
                    ],
                    [
                        -2.033274,
                        48.669122
                    ],
                    [
                        -2.033004,
                        48.669747
                    ],
                    [
                        -2.032905,
                        48.67033
                    ],
                    [
                        -2.032708,
                        48.670842
                    ],
                    [
                        -2.032411,
                        48.671341
                    ],
                    [
                        -2.032124,
                        48.671728
                    ],
                    [
                        -2.031971,
                        48.672097
                    ],
                    [
                        -2.031872,
                        48.672484
                    ],
                    [
                        -2.031621,
                        48.672478
                    ],
                    [
                        -2.03119,
                        48.672341
                    ],
                    [
                        -2.030615,
                        48.672228
                    ],
                    [
                        -2.030076,
                        48.672145
                    ],
                    [
                        -2.030013,
                        48.672311
                    ],
                    [
                        -2.029932,
                        48.672513
                    ],
                    [
                        -2.029824,
                        48.672823
                    ],
                    [
                        -2.029699,
                        48.673204
                    ],
                    [
                        -2.029555,
                        48.673436
                    ],
                    [
                        -2.029483,
                        48.673703
                    ],
                    [
                        -2.029366,
                        48.673971
                    ],
                    [
                        -2.029178,
                        48.674512
                    ],
                    [
                        -2.029061,
                        48.674941
                    ],
                    [
                        -2.028737,
                        48.675
                    ],
                    [
                        -2.028297,
                        48.674774
                    ],
                    [
                        -2.028207,
                        48.674863
                    ],
                    [
                        -2.02827,
                        48.675006
                    ],
                    [
                        -2.02819,
                        48.675345
                    ],
                    [
                        -2.028181,
                        48.675655
                    ],
                    [
                        -2.028333,
                        48.676089
                    ],
                    [
                        -2.028468,
                        48.676654
                    ],
                    [
                        -2.02845,
                        48.677213
                    ],
                    [
                        -2.028387,
                        48.677737
                    ],
                    [
                        -2.028243,
                        48.678153
                    ],
                    [
                        -2.028306,
                        48.678611
                    ],
                    [
                        -2.02836,
                        48.679099
                    ],
                    [
                        -2.028342,
                        48.679515
                    ],
                    [
                        -2.028315,
                        48.679974
                    ],
                    [
                        -2.028234,
                        48.680449
                    ],
                    [
                        -2.028181,
                        48.681014
                    ],
                    [
                        -2.028181,
                        48.681568
                    ],
                    [
                        -2.028297,
                        48.682151
                    ],
                    [
                        -2.028558,
                        48.682745
                    ],
                    [
                        -2.028773,
                        48.683352
                    ],
                    [
                        -2.028989,
                        48.683947
                    ],
                    [
                        -2.02916,
                        48.684566
                    ],
                    [
                        -2.029321,
                        48.685172
                    ],
                    [
                        -2.029447,
                        48.685779
                    ],
                    [
                        -2.029537,
                        48.686368
                    ],
                    [
                        -2.029699,
                        48.686921
                    ],
                    [
                        -2.029887,
                        48.687492
                    ],
                    [
                        -2.029914,
                        48.688081
                    ],
                    [
                        -2.029914,
                        48.688681
                    ],
                    [
                        -2.029896,
                        48.68924
                    ],
                    [
                        -2.029833,
                        48.689776
                    ],
                    [
                        -2.029923,
                        48.69037
                    ],
                    [
                        -2.030139,
                        48.691025
                    ],
                    [
                        -2.030229,
                        48.691703
                    ],
                    [
                        -2.0303,
                        48.692357
                    ],
                    [
                        -2.030363,
                        48.693005
                    ],
                    [
                        -2.030489,
                        48.693677
                    ],
                    [
                        -2.030534,
                        48.694349
                    ],
                    [
                        -2.030498,
                        48.694991
                    ],
                    [
                        -2.030498,
                        48.69564
                    ],
                    [
                        -2.030615,
                        48.6963
                    ],
                    [
                        -2.030579,
                        48.696948
                    ],
                    [
                        -2.030606,
                        48.697584
                    ],
                    [
                        -2.030453,
                        48.698179
                    ],
                    [
                        -2.030408,
                        48.698809
                    ],
                    [
                        -2.030336,
                        48.699451
                    ],
                    [
                        -1.994019,
                        48.839413
                    ],
                    [
                        -1.935654,
                        48.864715
                    ],
                    [
                        -1.83403,
                        48.861553
                    ],
                    [
                        -1.819267,
                        48.866747
                    ],
                    [
                        -1.820003,
                        48.870222
                    ],
                    [
                        -1.821885,
                        48.872857
                    ],
                    [
                        -1.826315,
                        48.875292
                    ]
                ]
            }
        }
    ]
}