{
    "type": "FeatureCollection",
    "features": [
        {
            "type": "Feature",
            "geometry": {
                "type": "LineString",
                "coordinates": [
                    [
                        -2.527938,
                        49.455087
                    ],
                    [
                        -2.527202,
                        49.455169
                    ],
                    [
                        -2.52651,
                        49.455298
                    ],
                    [
                        -2.525837,
                        49.455462
                    ],
                    [
                        -2.525172,
                        49.455637
                    ],
                    [
                        -2.524462,
                        49.455643
                    ],
                    [
                        -2.523744,
                        49.45559
                    ],
                    [
                        -2.523052,
                        49.455426
                    ],
                    [
                        -2.522378,
                        49.455304
                    ],
                    [
                        -2.521722,
                        49.455093
                    ],
                    [
                        -2.52113,
                        49.455081
                    ],
                    [
                        -2.520474,
                        49.454946
                    ],
                    [
                        -2.519827,
                        49.454753
                    ],
                    [
                        -2.519243,
                        49.454408
                    ],
                    [
                        -2.518686,
                        49.453998
                    ],
                    [
                        -2.518039,
                        49.45374
                    ],
                    [
                        -2.517411,
                        49.453447
                    ],
                    [
                        -2.516818,
                        49.453102
                    ],
                    [
                        -2.516144,
                        49.452949
                    ],
                    [
                        -2.515515,
                        49.452873
                    ],
                    [
                        -2.514904,
                        49.452867
                    ],
                    [
                        -2.514374,
                        49.452955
                    ],
                    [
                        -2.5138,
                        49.453002
                    ],
                    [
                        -2.513234,
                        49.453043
                    ],
                    [
                        -2.512677,
                        49.453084
                    ],
                    [
                        -2.512183,
                        49.453178
                    ],
                    [
                        -2.511671,
                        49.453277
                    ],
                    [
                        -2.511204,
                        49.453424
                    ],
                    [
                        -2.510745,
                        49.453576
                    ],
                    [
                        -2.510153,
                        49.453693
                    ],
                    [
                        -2.509515,
                        49.453769
                    ],
                    [
                        -2.508958,
                        49.453927
                    ],
                    [
                        -2.508347,
                        49.454056
                    ],
                    [
                        -2.5077,
                        49.454173
                    ],
                    [
                        -2.506946,
                        49.454156
                    ],
                    [
                        -2.506218,
                        49.454179
                    ],
                    [
                        -2.505473,
                        49.454144
                    ],
                    [
                        -2.504808,
                        49.454232
                    ],
                    [
                        -2.504197,
                        49.454384
                    ],
                    [
                        -2.503415,
                        49.454302
                    ],
                    [
                        -2.502679,
                        49.454033
                    ],
                    [
                        -2.502131,
                        49.453752
                    ],
                    [
                        -2.50161,
                        49.453476
                    ],
                    [
                        -2.50108,
                        49.453295
                    ],
                    [
                        -2.500424,
                        49.453014
                    ],
                    [
                        -2.499688,
                        49.452686
                    ],
                    [
                        -2.498915,
                        49.452364
                    ],
                    [
                        -2.498107,
                        49.452112
                    ],
                    [
                        -2.497244,
                        49.451901
                    ],
                    [
                        -2.496445,
                        49.451761
                    ],
                    [
                        -2.495636,
                        49.451725
                    ],
                    [
                        -2.494837,
                        49.451702
                    ],
                    [
                        -2.494244,
                        49.451725
                    ],
                    [
                        -2.493516,
                        49.451386
                    ],
                    [
                        -2.492852,
                        49.450988
                    ],
                    [
                        -2.492241,
                        49.450607
                    ],
                    [
                        -2.49172,
                        49.450244
                    ],
                    [
                        -2.491271,
                        49.449863
                    ],
                    [
                        -2.49075,
                        49.44957
                    ],
                    [
                        -2.490193,
                        49.449283
                    ],
                    [
                        -2.489609,
                        49.448967
                    ],
                    [
                        -2.488971,
                        49.448662
                    ],
                    [
                        -2.488315,
                        49.448387
                    ],
                    [
                        -2.487534,
                        49.448258
                    ],
                    [
                        -2.486654,
                        49.448018
                    ],
                    [
                        -2.485854,
                        49.447725
                    ],
                    [
                        -2.485117,
                        49.447433
                    ],
                    [
                        -2.484381,
                        49.447368
                    ],
                    [
                        -2.483528,
                        49.447298
                    ],
                    [
                        -2.482656,
                        49.447116
                    ],
                    [
                        -2.481749,
                        49.447028
                    ],
                    [
                        -2.480923,
                        49.446853
                    ],
                    [
                        -2.480069,
                        49.446747
                    ],
                    [
                        -2.479288,
                        49.446583
                    ],
                    [
                        -2.478569,
                        49.44639
                    ],
                    [
                        -2.477859,
                        49.446173
                    ],
                    [
                        -2.477177,
                        49.445927
                    ],
                    [
                        -2.47662,
                        49.44567
                    ],
                    [
                        -2.47609,
                        49.445459
                    ],
                    [
                        -2.475569,
                        49.445295
                    ],
                    [
                        -2.475066,
                        49.445084
                    ],
                    [
                        -2.474527,
                        49.444908
                    ],
                    [
                        -2.473979,
                        49.444721
                    ],
                    [
                        -2.473449,
                        49.444551
                    ],
                    [
                        -2.472937,
                        49.444463
                    ],
                    [
                        -2.472488,
                        49.444709
                    ],
                    [
                        -2.472021,
                        49.445008
                    ],
                    [
                        -2.471482,
                        49.445295
                    ],
                    [
                        -2.470907,
                        49.445547
                    ],
                    [
                        -2.470449,
                        49.445857
                    ],
                    [
                        -2.469999,
                        49.446179
                    ],
                    [
                        -2.469577,
                        49.446513
                    ],
                    [
                        -2.469011,
                        49.446853
                    ],
                    [
                        -2.468508,
                        49.447157
                    ],
                    [
                        -2.467897,
                        49.447462
                    ],
                    [
                        -2.467278,
                        49.447819
                    ],
                    [
                        -2.466676,
                        49.4482
                    ],
                    [
                        -2.466038,
                        49.448516
                    ],
                    [
                        -2.465346,
                        49.448844
                    ],
                    [
                        -2.464816,
                        49.44926
                    ],
                    [
                        -2.464179,
                        49.449594
                    ],
                    [
                        -2.463577,
                        49.44991
                    ],
                    [
                        -2.463092,
                        49.450168
                    ],
                    [
                        -2.462661,
                        49.450273
                    ],
                    [
                        -2.462283,
                        49.450367
                    ],
                    [
                        -2.461915,
                        49.450501
                    ],
                    [
                        -2.461556,
                        49.450624
                    ],
                    [
                        -2.461322,
                        49.450654
                    ],
                    [
                        -2.460963,
                        49.450619
                    ],
                    [
                        -2.460675,
                        49.450665
                    ],
                    [
                        -2.460388,
                        49.450724
                    ],
                    [
                        -2.460091,
                        49.450806
                    ],
                    [
                        -2.459714,
                        49.450923
                    ],
                    [
                        -2.459418,
                        49.451058
                    ],
                    [
                        -2.459031,
                        49.451128
                    ],
                    [
                        -2.458654,
                        49.451169
                    ],
                    [
                        -2.458205,
                        49.451257
                    ],
                    [
                        -2.457837,
                        49.451362
                    ],
                    [
                        -2.45737,
                        49.451468
                    ],
                    [
                        -2.456894,
                        49.451544
                    ],
                    [
                        -2.456516,
                        49.451679
                    ],
                    [
                        -2.456094,
                        49.451848
                    ]
                ]
            }
        }
    ]
}